INTELSAT 21 (IS-21)     
1 38749U 12045A   26170.88151520 -.00000290  00000+0  00000+0 0  9999
2 38749   0.0182  15.5881 0001428  83.7538  68.1019  1.00272499 50555
INTELSAT 23 (IS-23)     
1 38867U 12057A   26170.22916560 -.00000291  00000+0  00000+0 0  9995
2 38867   0.0099 325.5761 0000134  86.5042 244.8525  1.00267375 49974
FM-6                    
1 39360U 13058A   26170.86981515  .00000000  00000+0  00000+0 0  9995
2 39360   0.0358  52.4013 0001800 123.2173 289.3063  1.00270804 46106
INTELSAT 30 (IS-30)     
1 40271U 14062A   26170.24364323 -.00000157  00000+0  00000+0 0  9992
2 40271   0.0281  53.7801 0001240 330.6226 235.7245  1.00270952  6819
DIRECTV 14              
1 40333U 14078B   26170.65943204 -.00000131  00000+0  00000+0 0  9996
2 40333   0.0096  21.7348 0000313 296.0721  88.2306  1.00270473 42062
DIRECTV 15              
1 40663U 15026A   26170.65873870 -.00000108  00000+0  00000+0 0  9991
2 40663   0.0148  55.2937 0000300 316.2829  30.5620  1.00272172 40483
SKY MEXICO-1            
1 40664U 15026B   26170.87735519 -.00000240  00000+0  00000+0 0  9990
2 40664   0.0173  57.8933 0002125  47.1977  40.0495  1.00272276 40488
INTELSAT 34 (IS-34)     
1 40874U 15039A   26170.80183425 -.00000291  00000+0  00000+0 0  9999
2 40874   0.0089  12.0194 0000500 334.3252 154.8400  1.00270827 39669
INTELSAT 31 (IS-31)     
1 41581U 16035A   26170.08993880 -.00000156  00000+0  00000+0 0  9996
2 41581   0.0171 269.3791 0001127 318.6423 336.6183  1.00264216 36703
INTELSAT 36 (IS-36)     
1 41747U 16053A   26169.99747454 -.00000031  00000+0  00000+0 0  9994
2 41747   0.0124  11.1204 0002121 322.4188   1.2761  1.00271257 35971
INTELSAT 32E (IS-32E)   
1 41945U 17007B   26170.86988914 -.00000274  00000+0  00000+0 0  9999
2 41945   0.0183  12.7396 0000911 302.1800 223.1458  1.00276047 34256
INTELSAT 35E (IS-35E)   
1 42818U 17041A   26170.88604032  .00000000  00000+0  00000+0 0  9991
2 42818   0.0199  17.7179 0002096  71.1520 103.7192  1.00270538 32845
INTELSAT 37E (IS-37E)   
1 42950U 17059A   26170.85877913 -.00000146  00000+0  00000+0 0  9996
2 42950   0.0183  15.8076 0002578  96.8898  86.5479  1.00271087 32090
AZERSPACE 2 (IS-38)     
1 43632U 18074A   26170.83057865  .00000131  00000+0  00000+0 0  9999
2 43632   0.0183  16.6426 0001351  71.2108 164.3096  1.00270769 28478
HORIZONS-3E             
1 43633U 18074B   26170.85516841 -.00000037  00000+0  00000+0 0  9992
2 43633   0.0016  83.0794 0000893 215.5434  86.3125  1.00267073 28363
AT&T T-16               
1 44333U 19034A   26170.87293516 -.00000121  00000+0  00000+0 0  9994
2 44333   0.0213  66.4153 0000793 244.4703 170.6036  1.00271351 25665
INTELSAT 39 (IS-39)     
1 44476U 19049B   26170.97863836  .00000028  00000+0  00000+0 0  9992
2 44476   0.0109 339.1114 0000926 352.4452 350.8926  1.00270957 25158
GALAXY 30 (G-30)        
1 46114U 20056C   26170.72562682  .00000031  00000+0  00000+0 0  9995
2 46114   0.0178  13.9580 0002253  74.1097 316.0992  1.00272867 21310
GALAXY 33 (G-33)        
1 54026U 22128A   26170.63725116  .00000073  00000+0  00000+0 0  9997
2 54026   0.0199  49.5970 0001707  34.7906 279.8759  1.00270297 13768
GALAXY 34 (G-34)        
1 54027U 22128B   26170.72484681  .00000053  00000+0  00000+0 0  9995
2 54027   0.0118  50.0538 0001675  48.8611 300.9719  1.00275881 13935
GALAXY 31 (G-31)        
1 54243U 22153A   26170.65509868  .00000007  00000+0  00000+0 0  9999
2 54243   0.0226  84.3496 0001142 355.7949 302.5529  1.00271913  7157
GALAXY 32 (G-32)        
1 54244U 22153B   26170.87492851 -.00000180  00000+0  00000+0 0  9990
2 54244   0.0145  32.3186 0002079   4.4656  95.2833  1.00271615 13172
GALAXY 35 (G-35)        
1 54741U 22170A   26170.87449517 -.00000168  00000+0  00000+0 0  9998
2 54741   0.0159  72.7032 0001860  12.5053  44.5897  1.00271921 12924
GALAXY 36 (G-36)        
1 54742U 22170B   26170.87536184 -.00000191  00000+0  00000+0 0  9992
2 54742   0.0016 134.8714 0002554 308.7168  50.6340  1.00272135 12808
GALAXY 37 (G-37)        
1 57493U 23112A   26170.62475359  .00000042  00000+0  00000+0 0  9998
2 57493   0.0113 337.8853 0002011 108.5448 279.3221  1.00271263 10566
